{
"type": "FeatureCollection",
"name": "region",
"crs": { "type": "name", "properties": { "name": "urn:ogc:def:crs:OGC:1.3:CRS84" } },
"xy_coordinate_resolution": 0.0001,
"features": [
{ "type": "Feature", "properties": { }, "geometry": { "type": "Polygon", "coordinates": [ [ [ -72.7716, -37.5831 ], [ -72.7759, -37.5961 ], [ -72.766, -37.5958 ], [ -72.7568, -37.6122 ], [ -72.7414, -37.6182 ], [ -72.7319, -37.6162 ], [ -72.7272, -37.6261 ], [ -72.6857, -37.6178 ], [ -72.6651, -37.6295 ], [ -72.6534, -37.6207 ], [ -72.6532, -37.6302 ], [ -72.6403, -37.6415 ], [ -72.6509, -37.6647 ], [ -72.6397, -37.6629 ], [ -72.632, -37.6689 ], [ -72.6049, -37.6602 ], [ -72.5943, -37.6658 ], [ -72.6007, -37.6677 ], [ -72.5959, -37.6719 ], [ -72.5791, -37.6618 ], [ -72.566, -37.6666 ], [ -72.557, -37.6582 ], [ -72.5375, -37.6656 ], [ -72.5329, -37.6543 ], [ -72.5247, -37.6546 ], [ -72.5256, -37.6475 ], [ -72.5144, -37.6504 ], [ -72.5061, -37.6434 ], [ -72.4937, -37.6457 ], [ -72.486, -37.6603 ], [ -72.4858, -37.6767 ], [ -72.4797, -37.6801 ], [ -72.4836, -37.6924 ], [ -72.4746, -37.6975 ], [ -72.4791, -37.7051 ], [ -72.4724, -37.7088 ], [ -72.4848, -37.7216 ], [ -72.4795, -37.748 ], [ -72.4711, -37.7512 ], [ -72.4593, -37.7687 ], [ -72.4493, -37.7731 ], [ -72.4466, -37.7834 ], [ -72.4259, -37.7965 ], [ -72.4153, -37.8228 ], [ -72.4032, -37.8288 ], [ -72.4011, -37.8419 ], [ -72.3925, -37.8432 ], [ -72.3868, -37.8502 ], [ -72.3554, -37.8519 ], [ -72.3177, -37.8816 ], [ -72.3063, -37.8755 ], [ -72.2877, -37.8754 ], [ -72.2761, -37.8827 ], [ -72.2699, -37.8799 ], [ -72.2564, -37.8835 ], [ -72.2518, -37.8769 ], [ -72.2452, -37.8785 ], [ -72.2376, -37.889 ], [ -72.2076, -37.9047 ], [ -72.1893, -37.9265 ], [ -72.1778, -37.9274 ], [ -72.1622, -37.9417 ], [ -72.1461, -37.944 ], [ -72.143, -37.9533 ], [ -72.1291, -37.9531 ], [ -72.1352, -37.9621 ], [ -72.1273, -37.9637 ], [ -72.1226, -37.981 ], [ -72.1129, -37.9816 ], [ -72.113, -37.9927 ], [ -72.1045, -37.9921 ], [ -72.102, -37.9987 ], [ -72.089, -37.9975 ], [ -72.0686, -38.0034 ], [ -72.0671, -38.0082 ], [ -72.0492, -38.0142 ], [ -72.0315, -38.0085 ], [ -72.0238, -38.0102 ], [ -72.0208, -38.0035 ], [ -72.0157, -38.0079 ], [ -72.0081, -38.007 ], [ -71.9963, -37.9968 ], [ -71.9839, -37.9968 ], [ -71.9822, -37.9923 ], [ -71.9663, -37.9939 ], [ -71.966, -38.0005 ], [ -71.9566, -38.0023 ], [ -71.9471, -38.02 ], [ -71.9303, -38.0298 ], [ -71.9311, -38.0454 ], [ -71.9042, -38.0592 ], [ -71.8952, -38.0735 ], [ -71.8791, -38.0783 ], [ -71.8478, -38.0545 ], [ -71.8313, -38.0519 ], [ -71.8152, -38.0419 ], [ -71.7875, -38.0376 ], [ -71.7766, -38.0303 ], [ -71.7342, -38.0432 ], [ -71.7007, -38.0695 ], [ -71.698, -38.0843 ], [ -71.709, -38.1346 ], [ -71.7214, -38.1462 ], [ -71.694, -38.1692 ], [ -71.6947, -38.1784 ], [ -71.7078, -38.1859 ], [ -71.7069, -38.2017 ], [ -71.7156, -38.2101 ], [ -71.7119, -38.2208 ], [ -71.6889, -38.2407 ], [ -71.688, -38.25 ], [ -71.6996, -38.2582 ], [ -71.7064, -38.255 ], [ -71.7094, -38.266 ], [ -71.6902, -38.2867 ], [ -71.6734, -38.2995 ], [ -71.6634, -38.2997 ], [ -71.6494, -38.3144 ], [ -71.643, -38.3136 ], [ -71.6343, -38.2961 ], [ -71.6332, -38.275 ], [ -71.6253, -38.2671 ], [ -71.6263, -38.2606 ], [ -71.6189, -38.2599 ], [ -71.6096, -38.251 ], [ -71.6086, -38.2409 ], [ -71.5805, -38.2309 ], [ -71.5728, -38.239 ], [ -71.5537, -38.2461 ], [ -71.5305, -38.2264 ], [ -71.5361, -38.2129 ], [ -71.5318, -38.204 ], [ -71.5108, -38.2098 ], [ -71.4885, -38.1918 ], [ -71.4604, -38.1845 ], [ -71.449, -38.1765 ], [ -71.436, -38.177 ], [ -71.411, -38.1344 ], [ -71.4131, -38.1073 ], [ -71.3774, -38.0853 ], [ -71.3677, -38.0896 ], [ -71.3541, -38.0842 ], [ -71.3411, -38.0915 ], [ -71.3025, -38.0904 ], [ -71.2957, -38.1084 ], [ -71.2829, -38.1104 ], [ -71.2588, -38.0971 ], [ -71.2381, -38.098 ], [ -71.2264, -38.103 ], [ -71.1972, -38.1019 ], [ -71.1922, -38.1058 ], [ -71.1802, -38.1005 ], [ -71.1709, -38.1091 ], [ -71.1529, -38.1107 ], [ -71.135, -38.1022 ], [ -71.1202, -38.1056 ], [ -71.1094, -38.0916 ], [ -71.0959, -38.095 ], [ -71.0853, -38.0896 ], [ -71.032, -38.131 ], [ -71.0248, -38.1497 ], [ -71.0106, -38.1537 ], [ -71.0097, -38.1627 ], [ -70.9956, -38.1707 ], [ -70.9968, -38.2026 ], [ -71.0011, -38.2106 ], [ -71.021, -38.2142 ], [ -71.0154, -38.2264 ], [ -71.0177, -38.2388 ], [ -71.0326, -38.2495 ], [ -71.0093, -38.2624 ], [ -71.0099, -38.282 ], [ -70.997, -38.2915 ], [ -71.0026, -38.3247 ], [ -70.9966, -38.3555 ], [ -70.9821, -38.3649 ], [ -70.9863, -38.3753 ], [ -70.9799, -38.4147 ], [ -70.9838, -38.4307 ], [ -70.9772, -38.4433 ], [ -70.9574, -38.4444 ], [ -70.944, -38.4623 ], [ -70.9282, -38.4736 ], [ -70.9276, -38.4845 ], [ -70.9115, -38.4973 ], [ -70.9103, -38.5039 ], [ -70.8666, -38.5143 ], [ -70.8638, -38.5252 ], [ -70.8417, -38.5395 ], [ -70.8332, -38.569 ], [ -70.8357, -38.5862 ], [ -70.8294, -38.5887 ], [ -70.8275, -38.5964 ], [ -70.8353, -38.6036 ], [ -70.836, -38.6123 ], [ -70.8516, -38.6178 ], [ -70.873, -38.6395 ], [ -70.885, -38.6433 ], [ -70.9033, -38.6678 ], [ -70.9059, -38.6761 ], [ -70.899, -38.6902 ], [ -70.8835, -38.7018 ], [ -70.8905, -38.7204 ], [ -70.9055, -38.7285 ], [ -70.9251, -38.7635 ], [ -70.9638, -38.7635 ], [ -70.9742, -38.7595 ], [ -71.0024, -38.7693 ], [ -71.0229, -38.7598 ], [ -71.0512, -38.7578 ], [ -71.069, -38.769 ], [ -71.0957, -38.7549 ], [ -71.1077, -38.7745 ], [ -71.116, -38.7746 ], [ -71.1184, -38.7811 ], [ -71.1238, -38.7772 ], [ -71.1346, -38.7815 ], [ -71.1504, -38.7998 ], [ -71.1812, -38.8028 ], [ -71.1859, -38.8145 ], [ -71.2118, -38.8164 ], [ -71.2315, -38.8094 ], [ -71.2385, -38.8022 ], [ -71.2412, -38.8093 ], [ -71.2513, -38.8158 ], [ -71.2586, -38.815 ], [ -71.266, -38.826 ], [ -71.2677, -38.8527 ], [ -71.2782, -38.8588 ], [ -71.2845, -38.8571 ], [ -71.2854, -38.8638 ], [ -71.2958, -38.8719 ], [ -71.3144, -38.8796 ], [ -71.3217, -38.8801 ], [ -71.3287, -38.8744 ], [ -71.3389, -38.8771 ], [ -71.3629, -38.8913 ], [ -71.374, -38.9061 ], [ -71.3907, -38.9072 ], [ -71.3984, -38.9155 ], [ -71.4132, -38.9229 ], [ -71.4247, -38.9214 ], [ -71.4335, -38.9291 ], [ -71.4387, -38.9422 ], [ -71.4327, -38.9761 ], [ -71.4405, -38.9779 ], [ -71.4273, -38.9928 ], [ -71.4262, -39.0023 ], [ -71.4138, -39.0083 ], [ -71.4215, -39.0256 ], [ -71.4015, -39.0371 ], [ -71.3972, -39.046 ], [ -71.4075, -39.0522 ], [ -71.4181, -39.0702 ], [ -71.4073, -39.0971 ], [ -71.4197, -39.1255 ], [ -71.4114, -39.1411 ], [ -71.4212, -39.1512 ], [ -71.4117, -39.1639 ], [ -71.401, -39.1664 ], [ -71.3986, -39.1861 ], [ -71.3822, -39.2099 ], [ -71.3822, -39.2166 ], [ -71.3918, -39.2166 ], [ -71.3819, -39.2372 ], [ -71.3919, -39.2499 ], [ -71.3913, -39.2588 ], [ -71.3884, -39.2657 ], [ -71.3752, -39.2689 ], [ -71.3737, -39.2824 ], [ -71.3889, -39.2889 ], [ -71.3952, -39.3026 ], [ -71.3854, -39.3185 ], [ -71.3946, -39.3229 ], [ -71.3994, -39.3497 ], [ -71.4096, -39.3516 ], [ -71.4331, -39.3722 ], [ -71.4415, -39.3685 ], [ -71.4575, -39.3716 ], [ -71.4549, -39.39 ], [ -71.4439, -39.4027 ], [ -71.446, -39.4095 ], [ -71.464, -39.4167 ], [ -71.4613, -39.4232 ], [ -71.4512, -39.4243 ], [ -71.4477, -39.4507 ], [ -71.4627, -39.4555 ], [ -71.4631, -39.4712 ], [ -71.4731, -39.492 ], [ -71.517, -39.5032 ], [ -71.5178, -39.511 ], [ -71.5297, -39.5181 ], [ -71.5342, -39.5272 ], [ -71.5336, -39.5351 ], [ -71.5109, -39.5473 ], [ -71.5048, -39.5584 ], [ -71.479, -39.5501 ], [ -71.4702, -39.552 ], [ -71.4673, -39.5572 ], [ -71.4742, -39.5638 ], [ -71.4747, -39.5732 ], [ -71.4611, -39.5834 ], [ -71.4806, -39.6091 ], [ -71.4965, -39.6185 ], [ -71.5026, -39.6371 ], [ -71.5228, -39.6265 ], [ -71.5432, -39.6236 ], [ -71.5753, -39.6358 ], [ -71.6096, -39.6279 ], [ -71.6144, -39.6224 ], [ -71.6111, -39.6137 ], [ -71.6236, -39.5925 ], [ -71.635, -39.5859 ], [ -71.6555, -39.5877 ], [ -71.6734, -39.5638 ], [ -71.6961, -39.5631 ], [ -71.6956, -39.5512 ], [ -71.7081, -39.5341 ], [ -71.7043, -39.5019 ], [ -71.7188, -39.4936 ], [ -71.762, -39.5081 ], [ -71.7943, -39.4901 ], [ -71.811, -39.4896 ], [ -71.8173, -39.4776 ], [ -71.8422, -39.4698 ], [ -71.8614, -39.4352 ], [ -71.8767, -39.4351 ], [ -71.9225, -39.4211 ], [ -71.9395, -39.4202 ], [ -71.9727, -39.4448 ], [ -72.0102, -39.4466 ], [ -72.0253, -39.4587 ], [ -72.0716, -39.4791 ], [ -72.0893, -39.4966 ], [ -72.1178, -39.5108 ], [ -72.127, -39.5102 ], [ -72.1469, -39.5209 ], [ -72.1804, -39.5202 ], [ -72.2152, -39.5311 ], [ -72.2313, -39.5236 ], [ -72.259, -39.519 ], [ -72.2703, -39.5112 ], [ -72.2551, -39.5004 ], [ -72.2583, -39.4915 ], [ -72.243, -39.4859 ], [ -72.2367, -39.4712 ], [ -72.2164, -39.4692 ], [ -72.2198, -39.4671 ], [ -72.2408, -39.4659 ], [ -72.2535, -39.4726 ], [ -72.2643, -39.4709 ], [ -72.2791, -39.4902 ], [ -72.3094, -39.4994 ], [ -72.3235, -39.509 ], [ -72.3432, -39.5093 ], [ -72.3796, -39.5046 ], [ -72.4174, -39.4802 ], [ -72.4258, -39.4815 ], [ -72.4399, -39.4749 ], [ -72.4479, -39.4794 ], [ -72.4644, -39.4767 ], [ -72.4741, -39.4795 ], [ -72.5057, -39.4717 ], [ -72.5171, -39.477 ], [ -72.5324, -39.4337 ], [ -72.5919, -39.4501 ], [ -72.6206, -39.4447 ], [ -72.6427, -39.4574 ], [ -72.658, -39.4603 ], [ -72.6745, -39.4519 ], [ -72.6785, -39.4402 ], [ -72.6887, -39.4329 ], [ -72.7221, -39.426 ], [ -72.7404, -39.4356 ], [ -72.7354, -39.4374 ], [ -72.7403, -39.4417 ], [ -72.7513, -39.4353 ], [ -72.7552, -39.4387 ], [ -72.7647, -39.4318 ], [ -72.7713, -39.4326 ], [ -72.7728, -39.4277 ], [ -72.7895, -39.4324 ], [ -72.7882, -39.4243 ], [ -72.7839, -39.4259 ], [ -72.7825, -39.4222 ], [ -72.7907, -39.4164 ], [ -72.7932, -39.405 ], [ -72.8106, -39.4108 ], [ -72.8221, -39.4075 ], [ -72.8393, -39.4137 ], [ -72.8575, -39.3973 ], [ -72.8693, -39.3987 ], [ -72.8691, -39.4146 ], [ -72.8835, -39.4122 ], [ -72.8853, -39.4243 ], [ -72.8968, -39.4327 ], [ -72.9002, -39.3812 ], [ -72.8748, -39.3716 ], [ -72.8571, -39.3566 ], [ -72.8614, -39.3465 ], [ -72.8582, -39.3349 ], [ -72.8465, -39.3324 ], [ -72.8336, -39.3158 ], [ -72.8335, -39.3108 ], [ -72.8431, -39.3069 ], [ -72.8454, -39.295 ], [ -72.8582, -39.2882 ], [ -72.908, -39.2894 ], [ -72.9197, -39.3022 ], [ -72.9461, -39.3173 ], [ -72.9565, -39.3163 ], [ -72.9779, -39.3005 ], [ -72.9905, -39.2998 ], [ -73.0057, -39.2917 ], [ -73.0117, -39.297 ], [ -73.0235, -39.298 ], [ -73.0312, -39.3117 ], [ -73.0277, -39.3242 ], [ -73.0337, -39.3371 ], [ -73.0464, -39.3374 ], [ -73.0628, -39.3579 ], [ -73.0715, -39.3608 ], [ -73.0864, -39.3887 ], [ -73.0996, -39.3947 ], [ -73.1329, -39.3933 ], [ -73.1453, -39.4098 ], [ -73.16, -39.4159 ], [ -73.1712, -39.4179 ], [ -73.1794, -39.4108 ], [ -73.2018, -39.4131 ], [ -73.2262, -39.3932 ], [ -73.2427, -39.3903 ], [ -73.2337, -39.3828 ], [ -73.2224, -39.3942 ], [ -73.2045, -39.3757 ], [ -73.207, -39.3537 ], [ -73.2207, -39.3179 ], [ -73.2324, -39.3065 ], [ -73.2219, -39.2942 ], [ -73.2254, -39.2546 ], [ -73.3192, -38.9879 ], [ -73.3772, -38.8743 ], [ -73.4119, -38.7934 ], [ -73.4079, -38.7872 ], [ -73.4167, -38.7815 ], [ -73.4452, -38.7366 ], [ -73.4885, -38.6575 ], [ -73.4819, -38.6466 ], [ -73.503, -38.5936 ], [ -73.4989, -38.5812 ], [ -73.5045, -38.568 ], [ -73.5015, -38.55 ], [ -73.5179, -38.5078 ], [ -73.5119, -38.4964 ], [ -73.519, -38.4816 ], [ -73.5035, -38.4843 ], [ -73.4943, -38.4721 ], [ -73.4738, -38.4731 ], [ -73.4695, -38.4561 ], [ -73.438, -38.4495 ], [ -73.4308, -38.4313 ], [ -73.4214, -38.4304 ], [ -73.4172, -38.421 ], [ -73.3895, -38.41 ], [ -73.3826, -38.3987 ], [ -73.3786, -38.4037 ], [ -73.3652, -38.4035 ], [ -73.3486, -38.4116 ], [ -73.3353, -38.4281 ], [ -73.3204, -38.4376 ], [ -73.314, -38.4574 ], [ -73.3229, -38.467 ], [ -73.3214, -38.4824 ], [ -73.3068, -38.4923 ], [ -73.2746, -38.4901 ], [ -73.2746, -38.4685 ], [ -73.2835, -38.4645 ], [ -73.2884, -38.4509 ], [ -73.2722, -38.4354 ], [ -73.2797, -38.4339 ], [ -73.2867, -38.4249 ], [ -73.2997, -38.4229 ], [ -73.3001, -38.4169 ], [ -73.3089, -38.4121 ], [ -73.301, -38.3843 ], [ -73.3091, -38.3808 ], [ -73.3079, -38.3747 ], [ -73.3408, -38.3668 ], [ -73.3288, -38.3432 ], [ -73.2829, -38.3054 ], [ -73.2655, -38.2853 ], [ -73.2223, -38.2719 ], [ -73.2223, -38.2577 ], [ -73.2058, -38.2502 ], [ -73.199, -38.2418 ], [ -73.2015, -38.2313 ], [ -73.174, -38.2272 ], [ -73.1615, -38.2169 ], [ -73.1535, -38.2197 ], [ -73.1384, -38.2157 ], [ -73.132, -38.184 ], [ -73.093, -38.1921 ], [ -73.0777, -38.1769 ], [ -73.0893, -38.1469 ], [ -73.0732, -38.1282 ], [ -73.0807, -38.0957 ], [ -73.0996, -38.095 ], [ -73.124, -38.0767 ], [ -73.1556, -38.0755 ], [ -73.169, -38.0568 ], [ -73.1828, -38.0635 ], [ -73.1925, -38.0561 ], [ -73.2063, -38.0531 ], [ -73.202, -38.0466 ], [ -73.2063, -38.0407 ], [ -73.1937, -38.0133 ], [ -73.1812, -38.0038 ], [ -73.1849, -37.9868 ], [ -73.1402, -37.9783 ], [ -73.1401, -37.9747 ], [ -73.1286, -37.9729 ], [ -73.12, -37.9594 ], [ -73.1223, -37.9468 ], [ -73.1131, -37.9395 ], [ -73.1105, -37.9079 ], [ -73.1303, -37.8958 ], [ -73.1234, -37.8848 ], [ -73.1252, -37.8775 ], [ -73.1111, -37.8698 ], [ -73.0937, -37.8713 ], [ -73.0815, -37.8669 ], [ -73.0708, -37.8542 ], [ -73.0469, -37.8445 ], [ -73.0477, -37.8373 ], [ -73.0241, -37.8077 ], [ -73.0334, -37.7863 ], [ -73.0416, -37.7812 ], [ -73.0397, -37.7732 ], [ -73.0243, -37.7644 ], [ -73.0163, -37.7529 ], [ -73.0242, -37.7204 ], [ -73.0446, -37.7089 ], [ -73.0713, -37.7095 ], [ -73.0817, -37.721 ], [ -73.103, -37.7263 ], [ -73.1106, -37.7212 ], [ -73.1165, -37.6952 ], [ -73.1244, -37.6895 ], [ -73.106, -37.6875 ], [ -73.1045, -37.6772 ], [ -73.0802, -37.6763 ], [ -73.0783, -37.6623 ], [ -73.0682, -37.6599 ], [ -73.0698, -37.6502 ], [ -73.0586, -37.6402 ], [ -73.0741, -37.6293 ], [ -73.0714, -37.6214 ], [ -73.057, -37.6262 ], [ -73.0419, -37.6176 ], [ -73.0292, -37.6218 ], [ -73.0222, -37.6297 ], [ -73.0121, -37.6304 ], [ -73.004, -37.6252 ], [ -73.0044, -37.6194 ], [ -72.9462, -37.6134 ], [ -72.9324, -37.6147 ], [ -72.9274, -37.6197 ], [ -72.9106, -37.6068 ], [ -72.8714, -37.6059 ], [ -72.8687, -37.5996 ], [ -72.8527, -37.5902 ], [ -72.8403, -37.5964 ], [ -72.8024, -37.596 ], [ -72.7843, -37.5912 ], [ -72.7761, -37.5817 ], [ -72.7716, -37.5831 ] ] ] } }
]
}
