{
"type": "FeatureCollection",
"name": "fundo",
"crs": { "type": "name", "properties": { "name": "urn:ogc:def:crs:OGC:1.3:CRS84" } },
"xy_coordinate_resolution": 1e-06,
"features": [
{"type":"Feature","properties":{},"geometry":{"type":"LineString","coordinates":[[-73.261462,-39.798908],[-73.261476,-39.798872],[-73.261463,-39.798832],[-73.261455,-39.79882],[-73.261437,-39.798805],[-73.261442,-39.798778],[-73.26143,-39.798769],[-73.261395,-39.798758],[-73.261356,-39.798759],[-73.261336,-39.79876],[-73.261308,-39.798735],[-73.261322,-39.798708],[-73.261326,-39.798685],[-73.261322,-39.798663],[-73.261323,-39.798639],[-73.261317,-39.798605],[-73.261316,-39.798573],[-73.261313,-39.798548],[-73.261312,-39.798528],[-73.261314,-39.798506],[-73.261306,-39.798495],[-73.261287,-39.798501],[-73.261271,-39.7985],[-73.261249,-39.798489],[-73.26124,-39.798474],[-73.261222,-39.798446],[-73.261201,-39.798442],[-73.261176,-39.798426],[-73.261163,-39.798411],[-73.261161,-39.798382],[-73.261131,-39.798339],[-73.261118,-39.798308],[-73.261094,-39.798274],[-73.261086,-39.798247],[-73.261082,-39.798222],[-73.261056,-39.798201],[-73.26105,-39.79818],[-73.261062,-39.798165],[-73.261091,-39.798159],[-73.261124,-39.79816],[-73.261141,-39.798162],[-73.26115,-39.798156],[-73.261152,-39.798144],[-73.261134,-39.798136],[-73.261117,-39.79813],[-73.261104,-39.798114],[-73.261092,-39.798091],[-73.261092,-39.798058],[-73.261107,-39.798034],[-73.261128,-39.798017],[-73.26115,-39.798016],[-73.261162,-39.798016],[-73.261163,-39.798002],[-73.261178,-39.797968],[-73.261202,-39.797949],[-73.261245,-39.797933],[-73.261274,-39.797926],[-73.261285,-39.797909],[-73.261276,-39.797897],[-73.26126,-39.797886],[-73.261253,-39.797869],[-73.261236,-39.797866],[-73.2612,-39.797874],[-73.26117,-39.797875],[-73.261154,-39.797874],[-73.261138,-39.797867],[-73.261114,-39.797859],[-73.261082,-39.797856],[-73.261034,-39.797854],[-73.260994,-39.797856],[-73.26096,-39.797862],[-73.260925,-39.797863],[-73.260901,-39.797857],[-73.260891,-39.797828],[-73.260876,-39.797791],[-73.260863,-39.797763],[-73.260852,-39.797732],[-73.260833,-39.797707],[-73.260816,-39.79767],[-73.260801,-39.797624],[-73.260778,-39.797586],[-73.260757,-39.797576],[-73.260731,-39.797549],[-73.260716,-39.797512],[-73.260696,-39.797493],[-73.260672,-39.797476],[-73.260646,-39.797458],[-73.260644,-39.797431],[-73.260669,-39.797412],[-73.260685,-39.797392],[-73.260684,-39.797355],[-73.260667,-39.797323],[-73.260635,-39.797307],[-73.260601,-39.797283],[-73.260567,-39.797221],[-73.260544,-39.797158],[-73.260535,-39.797115],[-73.260523,-39.797082],[-73.260495,-39.797058],[-73.26045,-39.797024],[-73.260454,-39.796979],[-73.260481,-39.796976],[-73.260493,-39.796966],[-73.260493,-39.796953],[-73.260475,-39.796937],[-73.260445,-39.796934],[-73.260412,-39.796937],[-73.260378,-39.796936],[-73.260362,-39.796911],[-73.260348,-39.796881],[-73.260322,-39.796845],[-73.26031,-39.796818],[-73.260295,-39.796805],[-73.260278,-39.796805],[-73.260253,-39.796819],[-73.260261,-39.79686],[-73.260303,-39.796904],[-73.260322,-39.796942],[-73.260356,-39.796986],[-73.260392,-39.797039],[-73.260431,-39.797078],[-73.260451,-39.797118],[-73.260469,-39.79714],[-73.260487,-39.797179],[-73.260473,-39.7972],[-73.260439,-39.797186],[-73.260423,-39.797168],[-73.26041,-39.797148],[-73.260396,-39.797124],[-73.260376,-39.797094],[-73.260347,-39.797059],[-73.26033,-39.797026],[-73.260309,-39.797023],[-73.260271,-39.797023],[-73.260244,-39.797033],[-73.260225,-39.797039],[-73.260191,-39.797049],[-73.260153,-39.79705],[-73.260125,-39.797033],[-73.260092,-39.797017],[-73.260071,-39.797014],[-73.259981,-39.797016],[-73.259956,-39.796999],[-73.259959,-39.796976],[-73.259987,-39.796971],[-73.26004,-39.796966],[-73.260056,-39.796959],[-73.260058,-39.796946],[-73.260054,-39.79693],[-73.260038,-39.796902],[-73.260033,-39.796877],[-73.260023,-39.796851],[-73.260018,-39.796821],[-73.260026,-39.796794],[-73.260059,-39.796766],[-73.260082,-39.796737],[-73.260117,-39.796714],[-73.260127,-39.796697],[-73.260123,-39.796672],[-73.260121,-39.796654],[-73.260116,-39.796631],[-73.260107,-39.796602],[-73.260112,-39.796583],[-73.260132,-39.796563],[-73.260138,-39.796545],[-73.260151,-39.796527],[-73.260138,-39.796503],[-73.260112,-39.796478],[-73.260085,-39.796469],[-73.260053,-39.796474],[-73.260015,-39.796477],[-73.259979,-39.796468],[-73.259955,-39.796447],[-73.259942,-39.796428],[-73.25994,-39.79641],[-73.259927,-39.796389],[-73.259917,-39.796373],[-73.259902,-39.796366],[-73.259893,-39.796384],[-73.259882,-39.796424],[-73.259862,-39.79644],[-73.25985,-39.79647],[-73.259835,-39.796509],[-73.259843,-39.796529],[-73.259802,-39.796535],[-73.259747,-39.796538],[-73.25971,-39.796539],[-73.259685,-39.79653],[-73.259659,-39.79652],[-73.259699,-39.796513],[-73.259729,-39.796506],[-73.259763,-39.796501],[-73.259789,-39.796484],[-73.259801,-39.79647],[-73.259776,-39.796464],[-73.259725,-39.796479],[-73.259685,-39.796485],[-73.259659,-39.796499],[-73.259621,-39.796513],[-73.259589,-39.79653],[-73.259547,-39.796543],[-73.259511,-39.796547],[-73.259483,-39.796545],[-73.259451,-39.796552],[-73.259454,-39.796569],[-73.259461,-39.796586],[-73.259451,-39.796601],[-73.259428,-39.796602],[-73.259398,-39.796614],[-73.25937,-39.796625],[-73.259349,-39.796634],[-73.259343,-39.796666],[-73.259334,-39.796696],[-73.259316,-39.796716],[-73.259296,-39.796734],[-73.259306,-39.796754],[-73.259334,-39.796762],[-73.25936,-39.796752],[-73.259412,-39.796761],[-73.259412,-39.796792],[-73.259403,-39.796821],[-73.259363,-39.796839],[-73.259336,-39.796851],[-73.259276,-39.796845],[-73.259249,-39.796836],[-73.259202,-39.796834],[-73.259177,-39.796832],[-73.259148,-39.79684],[-73.259122,-39.796834],[-73.259098,-39.796833],[-73.259082,-39.796851],[-73.259078,-39.796882],[-73.259085,-39.796907],[-73.259072,-39.796928],[-73.259035,-39.79694],[-73.259014,-39.796953],[-73.259008,-39.79697],[-73.259021,-39.796989],[-73.259036,-39.797008],[-73.259055,-39.79703],[-73.259069,-39.797053],[-73.259069,-39.797075],[-73.259064,-39.797092],[-73.259052,-39.797113],[-73.259041,-39.797131],[-73.259055,-39.797159],[-73.259082,-39.797199],[-73.259105,-39.797239],[-73.259139,-39.797298],[-73.259162,-39.797338],[-73.259171,-39.797392],[-73.259174,-39.797439],[-73.259163,-39.79748],[-73.259155,-39.797531],[-73.259154,-39.797567],[-73.259153,-39.797605],[-73.25914,-39.797636],[-73.259127,-39.797681],[-73.259131,-39.797712],[-73.259145,-39.797749],[-73.259141,-39.797786],[-73.25913,-39.797821],[-73.259129,-39.79785],[-73.259108,-39.797878],[-73.259073,-39.797897],[-73.259039,-39.797931],[-73.259004,-39.797954],[-73.258972,-39.797985],[-73.258955,-39.798011],[-73.258953,-39.798041],[-73.258924,-39.798076],[-73.258894,-39.798103],[-73.258849,-39.798127],[-73.258819,-39.798131],[-73.258777,-39.798147],[-73.258763,-39.79817],[-73.258752,-39.798194],[-73.25872,-39.798214],[-73.258711,-39.798225],[-73.258707,-39.798258],[-73.258754,-39.79829],[-73.258784,-39.798304],[-73.258856,-39.798322],[-73.258907,-39.798333],[-73.258961,-39.798363],[-73.258998,-39.798387],[-73.259014,-39.798422],[-73.259013,-39.798455],[-73.259003,-39.798486],[-73.258989,-39.79851],[-73.258977,-39.798531],[-73.258959,-39.798545],[-73.258938,-39.798561],[-73.258916,-39.798588],[-73.258961,-39.798618],[-73.258988,-39.798627],[-73.259029,-39.798645],[-73.259074,-39.798662],[-73.259118,-39.798679],[-73.259138,-39.798697],[-73.259173,-39.798715],[-73.259206,-39.798731],[-73.259242,-39.798733],[-73.259282,-39.798752],[-73.259303,-39.798777],[-73.259312,-39.798801],[-73.259306,-39.79884],[-73.2593,-39.798856],[-73.259312,-39.798882],[-73.25933,-39.798906],[-73.259356,-39.798935],[-73.259382,-39.798949],[-73.259409,-39.798965],[-73.259458,-39.798988],[-73.259475,-39.799009],[-73.259464,-39.799059],[-73.259447,-39.799076],[-73.259431,-39.799102],[-73.25941,-39.79913],[-73.25941,-39.799152],[-73.259438,-39.799168],[-73.259469,-39.799165],[-73.259524,-39.799142],[-73.259612,-39.799134],[-73.259686,-39.799153],[-73.259728,-39.79917],[-73.259775,-39.799187],[-73.259849,-39.799188],[-73.259899,-39.799181],[-73.25995,-39.799185],[-73.259974,-39.799186],[-73.26007,-39.799131],[-73.260066,-39.799119],[-73.260242,-39.799021],[-73.260343,-39.798984],[-73.260459,-39.79894],[-73.260562,-39.798895],[-73.260695,-39.798849],[-73.260762,-39.798833],[-73.260861,-39.798825],[-73.260952,-39.79882],[-73.261035,-39.798821],[-73.261094,-39.798823],[-73.261185,-39.798827],[-73.261344,-39.798864],[-73.261462,-39.798908]]}}
]
}
