{"type": "FeatureCollection", "features": [{"type": "Feature", "geometry": {"type": "Point", "coordinates": [-73.261404, -39.798825]}, "properties": {"nombre": "Núcleo 1"}}, {"type": "Feature", "geometry": {"type": "Point", "coordinates": [-73.260996, -39.798738]}, "properties": {"nombre": "Núcleo 2"}}, {"type": "Feature", "geometry": {"type": "Point", "coordinates": [-73.261173, -39.798721]}, "properties": {"nombre": "Núcleo 3"}}, {"type": "Feature", "geometry": {"type": "Point", "coordinates": [-73.260773, -39.79831]}, "properties": {"nombre": "Núcleo 4"}}, {"type": "Feature", "geometry": {"type": "Point", "coordinates": [-73.261067, -39.798126]}, "properties": {"nombre": "Núcleo 5", "foto": "fotos/nucleo-05.jpg", "desc_es": "Copihue sobre individuos de aromo.", "desc_en": "Copihue (Lapageria rosea) climbing on blackwood trees."}}, {"type": "Feature", "geometry": {"type": "Point", "coordinates": [-73.261129, -39.797964]}, "properties": {"nombre": "Núcleo 6"}}, {"type": "Feature", "geometry": {"type": "Point", "coordinates": [-73.260688, -39.797985]}, "properties": {"nombre": "Núcleo 7"}}, {"type": "Feature", "geometry": {"type": "Point", "coordinates": [-73.26049, -39.797866]}, "properties": {"nombre": "Núcleo 8", "foto": "fotos/nucleo-08.jpg", "desc_es": "Individuo de roble seco.", "desc_en": "Dead roble (Nothofagus obliqua) sapling."}}, {"type": "Feature", "geometry": {"type": "Point", "coordinates": [-73.260332, -39.798144]}, "properties": {"nombre": "Núcleo 9"}}, {"type": "Feature", "geometry": {"type": "Point", "coordinates": [-73.26005, -39.7973]}, "properties": {"nombre": "Núcleo 10", "foto": "fotos/nucleo-10.jpg", "desc_es": "Rebrote de tocón de aromo.", "desc_en": "Blackwood regrowth from a stump."}}, {"type": "Feature", "geometry": {"type": "Point", "coordinates": [-73.259772, -39.797145]}, "properties": {"nombre": "Núcleo 11"}}, {"type": "Feature", "geometry": {"type": "Point", "coordinates": [-73.259789, -39.796955]}, "properties": {"nombre": "Núcleo 12"}}, {"type": "Feature", "geometry": {"type": "Point", "coordinates": [-73.259772, -39.796765]}, "properties": {"nombre": "Núcleo 13", "foto": "fotos/nucleo-13.jpg", "desc_es": "Descomposición parda junto con restos de carbón vegetal.", "desc_en": "Brown rot next to charcoal remains."}}, {"type": "Feature", "geometry": {"type": "Point", "coordinates": [-73.259624, -39.796998]}, "properties": {"nombre": "Núcleo 14"}}, {"type": "Feature", "geometry": {"type": "Point", "coordinates": [-73.259391, -39.797021]}, "properties": {"nombre": "Núcleo 15"}}, {"type": "Feature", "geometry": {"type": "Point", "coordinates": [-73.259528, -39.797204]}, "properties": {"nombre": "Núcleo 16"}}, {"type": "Feature", "geometry": {"type": "Point", "coordinates": [-73.259373, -39.79775]}, "properties": {"nombre": "Núcleo 17"}}, {"type": "Feature", "geometry": {"type": "Point", "coordinates": [-73.259871, -39.797948]}, "properties": {"nombre": "Núcleo 18"}}, {"type": "Feature", "geometry": {"type": "Point", "coordinates": [-73.25954, -39.79807]}, "properties": {"nombre": "Núcleo 19"}}, {"type": "Feature", "geometry": {"type": "Point", "coordinates": [-73.259446, -39.798141]}, "properties": {"nombre": "Núcleo 20"}}, {"type": "Feature", "geometry": {"type": "Point", "coordinates": [-73.259282, -39.798183]}, "properties": {"nombre": "Núcleo 21"}}, {"type": "Feature", "geometry": {"type": "Point", "coordinates": [-73.259664, -39.798575]}, "properties": {"nombre": "Hilera de Plantación"}}]}